OBJECT B                
1 51825U 22019B   24118.89709334  .00018531  00000+0  84608-3 0  9990
2 51825  97.4309 190.8953 0015657  60.3367 299.9425 15.20535192119586
